NORAD_CAT_ID,OBJECT_NAME,OBJECT_TYPE,EPOCH,MEAN_MOTION,ECCENTRICITY,INCLINATION,RA_OF_ASC_NODE,ARG_OF_PERICENTER,MEAN_ANOMALY,BSTAR,MEAN_MOTION_DOT,MEAN_MOTION_DDOT,TLE_LINE0,TLE_LINE1,TLE_LINE2,SEMIMAJOR_AXIS,PERIOD,APOGEE,PERIGEE,DECAYED
50848.0,STARLINK-3315,PAYLOAD,2023-04-04 00:27:53,15.08852588,0.0001306,53.2168,305.5475,103.7757,256.3381,0.00042731,6.522e-05,0.0,0 STARLINK-3315,1 50848U 22001AX  23094.01936749  .00006522  00000-0  42731-3 0  9992,2 50848  53.2168 305.5475 0001306 103.7757 256.3381 15.08852588 68632,6917.842,95.437,540.61,538.803,0.0
50848.0,STARLINK-3315,PAYLOAD,2023-04-04 21:07:54,15.08837888,0.0001305,53.2158,301.6807,94.8334,265.2808,8.9608e-05,1.138e-05,0.0,0 STARLINK-3315,1 50848U 22001AX  23094.88048974  .00001138  00000-0  89608-4 0  9994,2 50848  53.2158 301.6807 0001305  94.8334 265.2808 15.08837888 70077,6917.887,95.438,540.655,538.849,0.0
50848.0,STARLINK-3315,PAYLOAD,2023-04-05 06:40:13,15.08838712,0.0001213,53.2152,299.8966,101.3747,258.7381,4.7594e-05,4.7e-06,0.0,0 STARLINK-3315,1 50848U 22001AX  23095.27793061  .00000470  00000-0  47594-4 0  9998,2 50848  53.2152 299.8966 0001213 101.3747 258.7381 15.08838712 68825,6917.884,95.438,540.588,538.91,0.0
50848.0,STARLINK-3315,PAYLOAD,2023-04-05 20:58:41,15.088422,0.00012,53.2159,297.2199,98.3228,261.79,5.1586e-05,5.33e-06,0.0,0 STARLINK-3315,1 50848U 22001AX  23095.87409031  .00000533  00000-0  51586-4 0  9991,2 50848  53.2159 297.2199 0001200  98.3228 261.7900 15.08842200 68915,6917.874,95.437,540.569,538.909,0.0
50848.0,STARLINK-3315,PAYLOAD,2023-04-06 00:09:27,15.08846406,0.0001192,53.2162,296.6253,97.647,262.4657,0.0001086,1.441e-05,0.0,0 STARLINK-3315,1 50848U 22001AX  23096.00656786  .00001441  00000-0  10860-3 0  9996,2 50848  53.2162 296.6253 0001192  97.6470 262.4657 15.08846406 70242,6917.861,95.437,540.55,538.901,0.0
50848.0,STARLINK-3315,PAYLOAD,2023-04-06 12:52:33,15.08834907,0.000143,53.217,294.2463,87.4411,272.6745,4.3393e-05,4.03e-06,0.0,0 STARLINK-3315,1 50848U 22001AX  23096.53649739  .00000403  00000-0  43393-4 0  9999,2 50848  53.2170 294.2463 0001430  87.4411 272.6745 15.08834907 70328,6917.896,95.438,540.75,538.772,0.0
50848.0,STARLINK-3315,PAYLOAD,2023-04-06 19:14:05,15.08837373,0.0001209,53.2177,293.0578,102.9747,257.138,9.7772e-05,1.268e-05,0.0,0 STARLINK-3315,1 50848U 22001AX  23096.80145546  .00001268  00000-0  97772-4 0  9996,2 50848  53.2177 293.0578 0001209 102.9747 257.1380 15.08837373 69059,6917.888,95.438,540.59,538.917,0.0
50848.0,STARLINK-3315,PAYLOAD,2023-04-07 01:35:37,15.08843844,0.0001378,53.2167,291.8679,83.8843,276.2306,0.00015169,2.127e-05,0.0,0 STARLINK-3315,1 50848U 22001AX  23097.06641190  .00002127  00000-0  15169-3 0  9995,2 50848  53.2167 291.8679 0001378  83.8843 276.2306 15.08843844 70408,6917.869,95.437,540.687,538.78,0.0
50848.0,STARLINK-3315,PAYLOAD,2023-04-08 06:12:34,15.08835564,0.0001456,53.2149,286.5159,79.208,280.9076,-3.342e-05,-8.2e-06,0.0,0 STARLINK-3315,1 50848U 22001AX  23098.25873720 -.00000820  00000-0 -33420-4 0  9994,2 50848  53.2149 286.5159 0001456  79.2080 280.9076 15.08835564 70586,6917.894,95.438,540.766,538.752,0.0
50848.0,STARLINK-3315,PAYLOAD,2023-04-09 12:24:54,15.08835632,0.0001021,53.218,280.8672,58.4348,301.6744,9.4554e-05,1.217e-05,0.0,0 STARLINK-3315,1 50848U 22001AX  23099.51729854  .00001217  00000-0  94554-4 0  9996,2 50848  53.2180 280.8672 0001021  58.4348 301.6744 15.08835632 70772,6917.894,95.438,540.465,539.052,0.0
50848.0,STARLINK-3315,PAYLOAD,2023-04-09 18:46:26,15.08847381,0.0001103,53.2174,279.679,73.527,286.5843,2.5826e-05,1.23e-06,0.0,0 STARLINK-3315,1 50848U 22001AX  23099.78225300  .00000123  00000-0  25826-4 0  9993,2 50848  53.2174 279.6790 0001103  73.5270 286.5843 15.08847381 69509,6917.858,95.437,540.486,538.96,0.0
50848.0,STARLINK-3315,PAYLOAD,2023-04-09 21:57:12,15.08849153,0.0001045,53.2174,279.0808,78.5602,281.5507,6.3878e-05,7.29e-06,0.0,0 STARLINK-3315,1 50848U 22001AX  23099.91473069  .00000729  00000-0  63878-4 0  9996,2 50848  53.2174 279.0808 0001045  78.5602 281.5507 15.08849153 70831,6917.852,95.437,540.44,538.994,0.0
50848.0,STARLINK-3315,PAYLOAD,2023-04-10 13:51:04,15.08834776,9.67e-05,53.2178,276.1081,89.5262,270.5841,9.3945e-05,1.208e-05,0.0,0 STARLINK-3315,1 50848U 22001AX  23100.57714022  .00001208  00000-0  93945-4 0  9999,2 50848  53.2178 276.1081 0000967  89.5262 270.5841 15.08834776 70937,6917.896,95.438,540.43,539.092,0.0
50848.0,STARLINK-3315,PAYLOAD,2023-04-11 12:06:29,15.08830974,0.0001238,53.2172,271.9444,87.8272,272.2862,-3.2427e-05,-8.04e-06,0.0,0 STARLINK-3315,1 50848U 22001AX  23101.50450577 -.00000804  00000-0 -32427-4 0  9996,2 50848  53.2172 271.9444 0001238  87.8272 272.2862 15.08830974 69768,6917.908,95.438,540.629,538.917,0.0
50848.0,STARLINK-3315,PAYLOAD,2023-04-11 18:28:01,15.08835805,0.0001836,53.2189,270.7568,95.9941,264.1261,-5.6234e-05,-1.183e-05,0.0,0 STARLINK-3315,1 50848U 22001AX  23101.76945749 -.00001183  00000-0 -56234-4 0  9997,2 50848  53.2189 270.7568 0001836  95.9941 264.1261 15.08835805 69803,6917.893,95.438,541.028,538.488,0.0
50848.0,STARLINK-3315,PAYLOAD,2023-04-12 10:21:52,15.08842137,0.0001043,53.2167,267.7801,90.7084,269.4027,-3.1165e-05,-7.84e-06,0.0,0 STARLINK-3315,1 50848U 22001AX  23102.43185877 -.00000784  00000-0 -31165-4 0  9992,2 50848  53.2167 267.7801 0001043  90.7084 269.4027 15.08842137 69901,6917.874,95.437,540.46,539.017,0.0
50848.0,STARLINK-3315,PAYLOAD,2023-04-14 10:03:26,15.088348,0.0001234,53.2153,258.8601,84.4432,275.6701,5.6304e-06,-1.98e-06,0.0,0 STARLINK-3315,1 50848U 22001AX  23104.41906210 -.00000198  00000-0  56304-5 0  9995,2 50848  53.2153 258.8601 0001234  84.4432 275.6701 15.08834800 71510,6917.896,95.438,540.615,538.908,0.0
50848.0,STARLINK-3315,PAYLOAD,2023-04-14 11:38:49,15.08838936,0.0001189,53.2154,258.5624,90.3404,269.7725,7.9156e-05,9.72e-06,0.0,0 STARLINK-3315,1 50848U 22001AX  23104.48530059  .00000972  00000-0  79156-4 0  9994,2 50848  53.2154 258.5624 0001189  90.3404 269.7725 15.08838936 70217,6917.884,95.438,540.571,538.926,0.0
50848.0,STARLINK-3315,PAYLOAD,2023-04-14 22:46:31,15.08864209,0.0001294,53.2148,256.4815,72.584,287.5294,0.0020442,0.00032417,0.0,0 STARLINK-3315,1 50848U 22001AX  23104.94897704  .00032417  00000-0  20442-2 0  9999,2 50848  53.2148 256.4815 0001294  72.5840 287.5294 15.08864209 71595,6917.806,95.436,540.567,538.776,0.0
50848.0,STARLINK-3315,PAYLOAD,2023-04-15 13:05:00,15.08855521,0.0001406,53.215,253.8055,62.0908,298.0227,0.0017033,0.00026936,0.0,0 STARLINK-3315,1 50848U 22001AX  23105.54514106  .00026936  00000-0  17033-2 0  9999,2 50848  53.2150 253.8055 0001406  62.0908 298.0227 15.08855521 70374,6917.833,95.437,540.671,538.725,0.0
50848.0,STARLINK-3315,PAYLOAD,2023-04-15 19:26:32,15.08868972,0.0001477,53.2152,252.6163,58.5767,301.537,0.0020601,0.00032677,0.0,0 STARLINK-3315,1 50848U 22001AX  23105.81009721  .00032677  00000-0  20601-2 0  9995,2 50848  53.2152 252.6163 0001477  58.5767 301.5370 15.08868972 70412,6917.792,95.436,540.679,538.635,0.0
50848.0,STARLINK-3315,PAYLOAD,2023-04-15 21:01:55,15.08873711,0.0001491,53.2152,252.3188,58.58,301.5338,0.0020616,0.00032705,0.0,0 STARLINK-3315,1 50848U 22001AX  23105.87633561  .00032705  00000-0  20616-2 0  9994,2 50848  53.2152 252.3188 0001491  58.5800 301.5338 15.08873711 71737,6917.777,95.435,540.674,538.611,0.0
50848.0,STARLINK-3315,PAYLOAD,2023-04-16 12:55:47,15.088514,0.0001346,53.2158,249.3449,64.6802,295.4329,0.0014757,0.00023283,0.0,0 STARLINK-3315,1 50848U 22001AX  23106.53874006  .00023283  00000-0  14757-2 0  9999,2 50848  53.2158 249.3449 0001346  64.6802 295.4329 15.08851400 70526,6917.846,95.437,540.642,538.779,0.0
50848.0,STARLINK-3315,PAYLOAD,2023-04-16 19:17:19,15.08859206,0.000129,53.2157,248.1552,64.8214,295.2912,0.0018613,0.00029474,0.0,0 STARLINK-3315,1 50848U 22001AX  23106.80369794  .00029474  00000-0  18613-2 0  9995,2 50848  53.2157 248.1552 0001290  64.8214 295.2912 15.08859206 70566,6917.822,95.436,540.579,538.794,0.0
50848.0,STARLINK-3315,PAYLOAD,2023-04-17 12:46:34,15.08855839,0.0001164,53.2161,244.8843,70.3763,289.7355,0.0019127,0.00030297,0.0,0 STARLINK-3315,1 50848U 22001AX  23107.53234157  .00030297  00000-0  19127-2 0  9996,2 50848  53.2161 244.8843 0001164  70.3763 289.7355 15.08855839 71982,6917.832,95.437,540.502,538.892,0.0
50848.0,STARLINK-3315,PAYLOAD,2023-04-17 15:57:20,15.08859731,0.0001186,53.2162,244.2893,73.7204,286.3919,0.0015982,0.00025253,0.0,0 STARLINK-3315,1 50848U 22001AX  23107.66482012  .00025253  00000-0  15982-2 0  9996,2 50848  53.2162 244.2893 0001186  73.7204 286.3919 15.08859731 70694,6917.82,95.436,540.506,538.865,0.0
50848.0,STARLINK-3315,PAYLOAD,2023-04-18 09:26:35,15.08852393,0.0001309,53.2166,241.0168,67.0475,293.0655,0.0010429,0.00016354,0.0,0 STARLINK-3315,1 50848U 22001AX  23108.39346082  .00016354  00000-0  10429-2 0  9996,2 50848  53.2166 241.0168 0001309  67.0475 293.0655 15.08852393 70803,6917.843,95.437,540.613,538.802,0.0
50848.0,STARLINK-3315,PAYLOAD,2023-04-18 14:12:44,15.08851084,0.0001178,53.2161,240.126,65.4168,294.6947,0.00064319,9.966e-05,0.0,0 STARLINK-3315,1 50848U 22001AX  23108.59217813  .00009966  00000-0  64319-3 0  9996,2 50848  53.2161 240.1260 0001178  65.4168 294.6947 15.08851084 72142,6917.847,95.437,540.526,538.897,0.0
50848.0,STARLINK-3315,PAYLOAD,2023-04-18 15:48:07,15.08850499,0.0001215,53.2169,239.8297,72.7489,287.3636,0.00032323,4.862e-05,0.0,0 STARLINK-3315,1 50848U 22001AX  23108.65841683  .00004862  00000-0  32323-3 0  9991,2 50848  53.2169 239.8297 0001215  72.7489 287.3636 15.08850499 70842,6917.848,95.437,540.554,538.873,0.0
50848.0,STARLINK-3315,PAYLOAD,2023-04-19 09:17:21,15.08842394,0.0001304,53.2176,236.5583,99.8276,260.2864,-2.7773e-05,-7.3e-06,0.0,0 STARLINK-3315,1 50848U 22001AX  23109.38705650 -.00000730  00000-0 -27773-4 0  9991,2 50848  53.2176 236.5583 0001304  99.8276 260.2864 15.08842394 72261,6917.873,95.437,540.64,538.836,0.0
